CTC2_L_00629001-01
1 62368U 22169BI  26070.40851852  .00000000  00000+0  00000-0 0  9992
2 62368  70.0000   0.0000 0000000   0.0000   0.0000  4.55247085    15
CTC2_L_00629001-02
1 62369U 22194SE  26070.40851852  .00000000  00000+0  00000-0 0  9991
2 62369  70.0000   0.0000 0000000   0.0000  36.0000  4.55247085    15
CTC2_L_00629001-03
1 62370U 23829GY  26070.40851852  .00000000  00000+0  00000-0 0  9999
2 62370  70.0000   0.0000 0000000   0.0000  72.0000  4.55247085    17
CTC2_L_00629001-04
1 62371U 26311CY  26070.40851852  .00000000  00000+0  00000-0 0  9999
2 62371  70.0000   0.0000 0000000   0.0000 108.0000  4.55247085    18
CTC2_L_00629001-05
1 62372U 23372MZ  26070.40851852  .00000000  00000+0  00000-0 0  9994
2 62372  70.0000   0.0000 0000000   0.0000 144.0000  4.55247085    19
CTC2_L_00629001-06
1 62373U 26692UR  26070.40851852  .00000000  00000+0  00000-0 0  9993
2 62373  70.0000   0.0000 0000000   0.0000 180.0000  4.55247085    10
CTC2_L_00629001-07
1 62374U 23443RH  26070.40851852  .00000000  00000+0  00000-0 0  9995
2 62374  70.0000   0.0000 0000000   0.0000 216.0000  4.55247085    11
CTC2_L_00629001-08
1 62375U 23422NB  26070.40851852  .00000000  00000+0  00000-0 0  9993
2 62375  70.0000   0.0000 0000000   0.0000 252.0000  4.55247085    12
CTC2_L_00629001-09
1 62376U 25838QM  26070.40851852  .00000000  00000+0  00000-0 0  9997
2 62376  70.0000   0.0000 0000000   0.0000 288.0000  4.55247085    12
CTC2_L_00629001-10
1 62377U 26539PS  26070.40851852  .00000000  00000+0  00000-0 0  9997
2 62377  70.0000   0.0000 0000000   0.0000 324.0000  4.55247085    14
CTC2_L_00629002-01
1 62378U 26508ZQ  26070.40851852  .00000000  00000+0  00000-0 0  9994
2 62378  70.0000  30.0000 0000000   0.0000  12.0000  4.55247085    12
CTC2_L_00629002-02
1 62379U 25737OK  26070.40851852  .00000000  00000+0  00000-0 0  9998
2 62379  70.0000  30.0000 0000000   0.0000  48.0000  4.55247085    12
CTC2_L_00629002-03
1 62380U 25532DL  26070.40851852  .00000000  00000+0  00000-0 0  9993
2 62380  70.0000  30.0000 0000000   0.0000  84.0000  4.55247085    14
CTC2_L_00629002-04
1 62381U 24402NJ  26070.40851852  .00000000  00000+0  00000-0 0  9999
2 62381  70.0000  30.0000 0000000   0.0000 120.0000  4.55247085    16
CTC2_L_00629002-05
1 62382U 22235OH  26070.40851852  .00000000  00000+0  00000-0 0  9992
2 62382  70.0000  30.0000 0000000   0.0000 156.0000  4.55247085    16
CTC2_L_00629002-06
1 62383U 22702IJ  26070.40851852  .00000000  00000+0  00000-0 0  9992
2 62383  70.0000  30.0000 0000000   0.0000 192.0000  4.55247085    17
CTC2_L_00629002-07
1 62384U 24943ZL  26070.40851852  .00000000  00000+0  00000-0 0  9992
2 62384  70.0000  30.0000 0000000   0.0000 228.0000  4.55247085    18
CTC2_L_00629002-08
1 62385U 24062TS  26070.40851852  .00000000  00000+0  00000-0 0  9995
2 62385  70.0000  30.0000 0000000   0.0000 264.0000  4.55247085    19
CTC2_L_00629002-09
1 62386U 26948AP  26070.40851852  .00000000  00000+0  00000-0 0  9991
2 62386  70.0000  30.0000 0000000   0.0000 300.0000  4.55247085    11
CTC2_L_00629002-10
1 62387U 25243CH  26070.40851852  .00000000  00000+0  00000-0 0  9999
2 62387  70.0000  30.0000 0000000   0.0000 336.0000  4.55247085    11
CTC2_L_00629003-01
1 62388U 23888EK  26070.40851852  .00000000  00000+0  00000-0 0  9993
2 62388  70.0000  60.0000 0000000   0.0000  24.0000  4.55247085    19
CTC2_L_00629003-02
1 62389U 26248BN  26070.40851852  .00000000  00000+0  00000-0 0  9997
2 62389  70.0000  60.0000 0000000   0.0000  60.0000  4.55247085    10
CTC2_L_00629003-03
1 62390U 22750HQ  26070.40851852  .00000000  00000+0  00000-0 0  9993
2 62390  70.0000  60.0000 0000000   0.0000  96.0000  4.55247085    11
CTC2_L_00629003-04
1 62391U 22845UN  26070.40851852  .00000000  00000+0  00000-0 0  9999
2 62391  70.0000  60.0000 0000000   0.0000 132.0000  4.55247085    13
CTC2_L_00629003-05
1 62392U 26873XZ  26070.40851852  .00000000  00000+0  00000-0 0  9995
2 62392  70.0000  60.0000 0000000   0.0000 168.0000  4.55247085    13
CTC2_L_00629003-06
1 62393U 22023TU  26070.40851852  .00000000  00000+0  00000-0 0  9999
2 62393  70.0000  60.0000 0000000   0.0000 204.0000  4.55247085    15
CTC2_L_00629003-07
1 62394U 25641QE  26070.40851852  .00000000  00000+0  00000-0 0  9999
2 62394  70.0000  60.0000 0000000   0.0000 240.0000  4.55247085    16
CTC2_L_00629003-08
1 62395U 22611CA  26070.40851852  .00000000  00000+0  00000-0 0  9994
2 62395  70.0000  60.0000 0000000   0.0000 276.0000  4.55247085    16
CTC2_L_00629003-09
1 62396U 25498KB  26070.40851852  .00000000  00000+0  00000-0 0  9991
2 62396  70.0000  60.0000 0000000   0.0000 312.0000  4.55247085    18
CTC2_L_00629003-10
1 62397U 22992TH  26070.40851852  .00000000  00000+0  00000-0 0  9998
2 62397  70.0000  60.0000 0000000   0.0000 348.0000  4.55247085    18
CTC2_L_00629004-01
1 62398U 22933AK  26070.40851852  .00000000  00000+0  00000-0 0  9994
2 62398  70.0000  90.0000 0000000   0.0000  36.0000  4.55247085    16
CTC2_L_00629004-02
1 62399U 25862EJ  26070.40851852  .00000000  00000+0  00000-0 0  9999
2 62399  70.0000  90.0000 0000000   0.0000  72.0000  4.55247085    17
CTC2_L_00629004-03
1 62400U 26355LT  26070.40851852  .00000000  00000+0  00000-0 0  9990
2 62400  70.0000  90.0000 0000000   0.0000 108.0000  4.55247085    10
CTC2_L_00629004-04
1 62401U 22790MZ  26070.40851852  .00000000  00000+0  00000-0 0  9990
2 62401  70.0000  90.0000 0000000   0.0000 144.0000  4.55247085    11
CTC2_L_00629004-05
1 62402U 22475BJ  26070.40851852  .00000000  00000+0  00000-0 0  9991
2 62402  70.0000  90.0000 0000000   0.0000 180.0000  4.55247085    12
CTC2_L_00629004-06
1 62403U 22393NB  26070.40851852  .00000000  00000+0  00000-0 0  9991
2 62403  70.0000  90.0000 0000000   0.0000 216.0000  4.55247085    13
CTC2_L_00629004-07
1 62404U 24482QE  26070.40851852  .00000000  00000+0  00000-0 0  9993
2 62404  70.0000  90.0000 0000000   0.0000 252.0000  4.55247085    14
CTC2_L_00629004-08
1 62405U 23710TF  26070.40851852  .00000000  00000+0  00000-0 0  9997
2 62405  70.0000  90.0000 0000000   0.0000 288.0000  4.55247085    14
CTC2_L_00629004-09
1 62406U 26834TO  26070.40851852  .00000000  00000+0  00000-0 0  9998
2 62406  70.0000  90.0000 0000000   0.0000 324.0000  4.55247085    16
CTC2_L_00629004-10
1 62407U 23109NV  26070.40851852  .00000000  00000+0  00000-0 0  9991
2 62407  70.0000  90.0000 0000000   0.0000   0.0000  4.55247085    18
CTC2_L_00629005-01
1 62408U 22427AV  26070.40851852  .00000000  00000+0  00000-0 0  9994
2 62408  70.0000 120.0000 0000000   0.0000  48.0000  4.55247085    15
CTC2_L_00629005-02
1 62409U 23347BC  26070.40851852  .00000000  00000+0  00000-0 0  9997
2 62409  70.0000 120.0000 0000000   0.0000  84.0000  4.55247085    16
CTC2_L_00629005-03
1 62410U 25007OS  26070.40851852  .00000000  00000+0  00000-0 0  9994
2 62410  70.0000 120.0000 0000000   0.0000 120.0000  4.55247085    19
CTC2_L_00629005-04
1 62411U 24940FQ  26070.40851852  .00000000  00000+0  00000-0 0  9990
2 62411  70.0000 120.0000 0000000   0.0000 156.0000  4.55247085    19
CTC2_L_00629005-05
1 62412U 22684GA  26070.40851852  .00000000  00000+0  00000-0 0  9994
2 62412  70.0000 120.0000 0000000   0.0000 192.0000  4.55247085    10
CTC2_L_00629005-06
1 62413U 25858OG  26070.40851852  .00000000  00000+0  00000-0 0  9991
2 62413  70.0000 120.0000 0000000   0.0000 228.0000  4.55247085    11
CTC2_L_00629005-07
1 62414U 25418QG  26070.40851852  .00000000  00000+0  00000-0 0  9994
2 62414  70.0000 120.0000 0000000   0.0000 264.0000  4.55247085    12
CTC2_L_00629005-08
1 62415U 22126GE  26070.40851852  .00000000  00000+0  00000-0 0  9998
2 62415  70.0000 120.0000 0000000   0.0000 300.0000  4.55247085    14
CTC2_L_00629005-09
1 62416U 24905DF  26070.40851852  .00000000  00000+0  00000-0 0  9996
2 62416  70.0000 120.0000 0000000   0.0000 336.0000  4.55247085    14
CTC2_L_00629005-10
1 62417U 22243HY  26070.40851852  .00000000  00000+0  00000-0 0  9990
2 62417  70.0000 120.0000 0000000   0.0000  12.0000  4.55247085    16
CTC2_L_00629006-01
1 62418U 22602LR  26070.40851852  .00000000  00000+0  00000-0 0  9990
2 62418  70.0000 150.0000 0000000   0.0000  60.0000  4.55247085    13
CTC2_L_00629006-02
1 62419U 22285WT  26070.40851852  .00000000  00000+0  00000-0 0  9998
2 62419  70.0000 150.0000 0000000   0.0000  96.0000  4.55247085    13
CTC2_L_00629006-03
1 62420U 24338WB  26070.40851852  .00000000  00000+0  00000-0 0  9991
2 62420  70.0000 150.0000 0000000   0.0000 132.0000  4.55247085    16
CTC2_L_00629006-04
1 62421U 25953UU  26070.40851852  .00000000  00000+0  00000-0 0  9996
2 62421  70.0000 150.0000 0000000   0.0000 168.0000  4.55247085    16
CTC2_L_00629006-05
1 62422U 26067PT  26070.40851852  .00000000  00000+0  00000-0 0  9994
2 62422  70.0000 150.0000 0000000   0.0000 204.0000  4.55247085    18
CTC2_L_00629006-06
1 62423U 26422GN  26070.40851852  .00000000  00000+0  00000-0 0  9990
2 62423  70.0000 150.0000 0000000   0.0000 240.0000  4.55247085    19
CTC2_L_00629006-07
1 62424U 23468EK  26070.40851852  .00000000  00000+0  00000-0 0  9998
2 62424  70.0000 150.0000 0000000   0.0000 276.0000  4.55247085    19
CTC2_L_00629006-08
1 62425U 22465KY  26070.40851852  .00000000  00000+0  00000-0 0  9995
2 62425  70.0000 150.0000 0000000   0.0000 312.0000  4.55247085    11
CTC2_L_00629006-09
1 62426U 23959CR  26070.40851852  .00000000  00000+0  00000-0 0  9995
2 62426  70.0000 150.0000 0000000   0.0000 348.0000  4.55247085    11
CTC2_L_00629006-10
1 62427U 24749SS  26070.40851852  .00000000  00000+0  00000-0 0  9994
2 62427  70.0000 150.0000 0000000   0.0000  24.0000  4.55247085    13
CTC2_L_00629007-01
1 62428U 25100L   26070.40851852  .00000000  00000+0  00000-0 0  9997
2 62428  70.0000 180.0000 0000000   0.0000  72.0000  4.55247085    10
CTC2_L_00629007-02
1 62429U 25817ST  26070.40851852  .00000000  00000+0  00000-0 0  9993
2 62429  70.0000 180.0000 0000000   0.0000 108.0000  4.55247085    11
